CCSDS_OMM_VERS = 2.0
CREATION_DATE  = 
ORIGINATOR     = 

OBJECT_NAME    = STARLINK-36948
OBJECT_ID      = 2026-053C
CENTER_NAME    = EARTH
REF_FRAME      = TEME
TIME_SYSTEM    = UTC
MEAN_ELEMENT_THEORY = SGP/SGP4

EPOCH          = 2026-03-29T04:00:01.999584
MEAN_MOTION    = 15.80806491
ECCENTRICITY   = .0001866
INCLINATION    = 97.2844
RA_OF_ASC_NODE = 323.3731
ARG_OF_PERICENTER = 104.1827
MEAN_ANOMALY   = 262.5641

EPHEMERIS_TYPE = 0
CLASSIFICATION_TYPE = U
NORAD_CAT_ID   = 68209
ELEMENT_SET_NO = 999
REV_AT_EPOCH   = 303
BSTAR          = .18212E-3
MEAN_MOTION_DOT = .34869E-3
MEAN_MOTION_DDOT = 0

CCSDS_OMM_VERS = 2.0
CREATION_DATE  = 
ORIGINATOR     = 

OBJECT_NAME    = STARLINK-37119
OBJECT_ID      = 2026-053D
CENTER_NAME    = EARTH
REF_FRAME      = TEME
TIME_SYSTEM    = UTC
MEAN_ELEMENT_THEORY = SGP/SGP4

EPOCH          = 2026-03-29T04:00:01.999584
MEAN_MOTION    = 15.80840910
ECCENTRICITY   = .000148
INCLINATION    = 97.2841
RA_OF_ASC_NODE = 323.3733
ARG_OF_PERICENTER = 114.6468
MEAN_ANOMALY   = 256.3667

EPHEMERIS_TYPE = 0
CLASSIFICATION_TYPE = U
NORAD_CAT_ID   = 68210
ELEMENT_SET_NO = 999
REV_AT_EPOCH   = 314
BSTAR          = -.20441E-3
MEAN_MOTION_DOT = -.39166E-3
MEAN_MOTION_DDOT = 0

CCSDS_OMM_VERS = 2.0
CREATION_DATE  = 
ORIGINATOR     = 

OBJECT_NAME    = STARLINK-37120
OBJECT_ID      = 2026-053E
CENTER_NAME    = EARTH
REF_FRAME      = TEME
TIME_SYSTEM    = UTC
MEAN_ELEMENT_THEORY = SGP/SGP4

EPOCH          = 2026-03-29T04:00:01.999584
MEAN_MOTION    = 15.80797847
ECCENTRICITY   = .0001332
INCLINATION    = 97.2843
RA_OF_ASC_NODE = 323.3752
ARG_OF_PERICENTER = 84.9207
MEAN_ANOMALY   = 290.3931

EPHEMERIS_TYPE = 0
CLASSIFICATION_TYPE = U
NORAD_CAT_ID   = 68211
ELEMENT_SET_NO = 999
REV_AT_EPOCH   = 312
BSTAR          = .12918E-3
MEAN_MOTION_DOT = .24652E-3
MEAN_MOTION_DDOT = 0

CCSDS_OMM_VERS = 2.0
CREATION_DATE  = 
ORIGINATOR     = 

OBJECT_NAME    = STARLINK-37117
OBJECT_ID      = 2026-053F
CENTER_NAME    = EARTH
REF_FRAME      = TEME
TIME_SYSTEM    = UTC
MEAN_ELEMENT_THEORY = SGP/SGP4

EPOCH          = 2026-03-29T04:00:01.999584
MEAN_MOTION    = 15.80824466
ECCENTRICITY   = .0001463
INCLINATION    = 97.2842
RA_OF_ASC_NODE = 323.3777
ARG_OF_PERICENTER = 94.8759
MEAN_ANOMALY   = 284.6938

EPHEMERIS_TYPE = 0
CLASSIFICATION_TYPE = U
NORAD_CAT_ID   = 68212
ELEMENT_SET_NO = 999
REV_AT_EPOCH   = 314
BSTAR          = -.36512E-4
MEAN_MOTION_DOT = -.7133E-4
MEAN_MOTION_DDOT = 0

CCSDS_OMM_VERS = 2.0
CREATION_DATE  = 
ORIGINATOR     = 

OBJECT_NAME    = STARLINK-37116
OBJECT_ID      = 2026-053G
CENTER_NAME    = EARTH
REF_FRAME      = TEME
TIME_SYSTEM    = UTC
MEAN_ELEMENT_THEORY = SGP/SGP4

EPOCH          = 2026-03-29T04:00:01.999584
MEAN_MOTION    = 15.80796107
ECCENTRICITY   = .0001601
INCLINATION    = 97.2843
RA_OF_ASC_NODE = 323.3794
ARG_OF_PERICENTER = 98.3849
MEAN_ANOMALY   = 285.4724

EPHEMERIS_TYPE = 0
CLASSIFICATION_TYPE = U
NORAD_CAT_ID   = 68213
ELEMENT_SET_NO = 999
REV_AT_EPOCH   = 314
BSTAR          = .22907E-3
MEAN_MOTION_DOT = .43917E-3
MEAN_MOTION_DDOT = 0

CCSDS_OMM_VERS = 2.0
CREATION_DATE  = 
ORIGINATOR     = 

OBJECT_NAME    = STARLINK-35854
OBJECT_ID      = 2026-053H
CENTER_NAME    = EARTH
REF_FRAME      = TEME
TIME_SYSTEM    = UTC
MEAN_ELEMENT_THEORY = SGP/SGP4

EPOCH          = 2026-03-29T04:00:01.999584
MEAN_MOTION    = 15.80831223
ECCENTRICITY   = .0001484
INCLINATION    = 97.2841
RA_OF_ASC_NODE = 323.3806
ARG_OF_PERICENTER = 89.3076
MEAN_ANOMALY   = 298.8070

EPHEMERIS_TYPE = 0
CLASSIFICATION_TYPE = U
NORAD_CAT_ID   = 68214
ELEMENT_SET_NO = 999
REV_AT_EPOCH   = 290
BSTAR          = -.11803E-3
MEAN_MOTION_DOT = -.22708E-3
MEAN_MOTION_DDOT = 0

CCSDS_OMM_VERS = 2.0
CREATION_DATE  = 
ORIGINATOR     = 

OBJECT_NAME    = STARLINK-36272
OBJECT_ID      = 2026-053J
CENTER_NAME    = EARTH
REF_FRAME      = TEME
TIME_SYSTEM    = UTC
MEAN_ELEMENT_THEORY = SGP/SGP4

EPOCH          = 2026-03-29T04:00:01.999584
MEAN_MOTION    = 15.80802439
ECCENTRICITY   = .0001402
INCLINATION    = 97.2842
RA_OF_ASC_NODE = 323.3827
ARG_OF_PERICENTER = 108.0529
MEAN_ANOMALY   = 284.3489

EPHEMERIS_TYPE = 0
CLASSIFICATION_TYPE = U
NORAD_CAT_ID   = 68215
ELEMENT_SET_NO = 999
REV_AT_EPOCH   = 303
BSTAR          = .13826E-3
MEAN_MOTION_DOT = .26405E-3
MEAN_MOTION_DDOT = 0

CCSDS_OMM_VERS = 2.0
CREATION_DATE  = 
ORIGINATOR     = 

OBJECT_NAME    = STARLINK-37014
OBJECT_ID      = 2026-053K
CENTER_NAME    = EARTH
REF_FRAME      = TEME
TIME_SYSTEM    = UTC
MEAN_ELEMENT_THEORY = SGP/SGP4

EPOCH          = 2026-03-29T04:00:01.999584
MEAN_MOTION    = 15.80806719
ECCENTRICITY   = .000146
INCLINATION    = 97.2843
RA_OF_ASC_NODE = 323.3844
ARG_OF_PERICENTER = 115.8607
MEAN_ANOMALY   = 280.8126

EPHEMERIS_TYPE = 0
CLASSIFICATION_TYPE = U
NORAD_CAT_ID   = 68216
ELEMENT_SET_NO = 999
REV_AT_EPOCH   = 314
BSTAR          = .14603E-3
MEAN_MOTION_DOT = .27907E-3
MEAN_MOTION_DDOT = 0

CCSDS_OMM_VERS = 2.0
CREATION_DATE  = 
ORIGINATOR     = 

OBJECT_NAME    = STARLINK-37011
OBJECT_ID      = 2026-053L
CENTER_NAME    = EARTH
REF_FRAME      = TEME
TIME_SYSTEM    = UTC
MEAN_ELEMENT_THEORY = SGP/SGP4

EPOCH          = 2026-03-29T04:00:01.999584
MEAN_MOTION    = 15.80818844
ECCENTRICITY   = .0001556
INCLINATION    = 97.2842
RA_OF_ASC_NODE = 323.3866
ARG_OF_PERICENTER = 111.3345
MEAN_ANOMALY   = 289.6086

EPHEMERIS_TYPE = 0
CLASSIFICATION_TYPE = U
NORAD_CAT_ID   = 68217
ELEMENT_SET_NO = 999
REV_AT_EPOCH   = 314
BSTAR          = .35899E-4
MEAN_MOTION_DOT = .6741E-4
MEAN_MOTION_DDOT = 0

CCSDS_OMM_VERS = 2.0
CREATION_DATE  = 
ORIGINATOR     = 

OBJECT_NAME    = STARLINK-37108
OBJECT_ID      = 2026-053M
CENTER_NAME    = EARTH
REF_FRAME      = TEME
TIME_SYSTEM    = UTC
MEAN_ELEMENT_THEORY = SGP/SGP4

EPOCH          = 2026-03-29T04:00:01.999584
MEAN_MOTION    = 15.80835170
ECCENTRICITY   = .0001582
INCLINATION    = 97.2842
RA_OF_ASC_NODE = 323.3879
ARG_OF_PERICENTER = 107.4898
MEAN_ANOMALY   = 297.7150

EPHEMERIS_TYPE = 0
CLASSIFICATION_TYPE = U
NORAD_CAT_ID   = 68218
ELEMENT_SET_NO = 999
REV_AT_EPOCH   = 314
BSTAR          = -.11844E-3
MEAN_MOTION_DOT = -.2279E-3
MEAN_MOTION_DDOT = 0

CCSDS_OMM_VERS = 2.0
CREATION_DATE  = 
ORIGINATOR     = 

OBJECT_NAME    = STARLINK-37106
OBJECT_ID      = 2026-053N
CENTER_NAME    = EARTH
REF_FRAME      = TEME
TIME_SYSTEM    = UTC
MEAN_ELEMENT_THEORY = SGP/SGP4

EPOCH          = 2026-03-29T04:00:01.999584
MEAN_MOTION    = 15.80874032
ECCENTRICITY   = .0001576
INCLINATION    = 97.2841
RA_OF_ASC_NODE = 323.3896
ARG_OF_PERICENTER = 101.6321
MEAN_ANOMALY   = 307.8636

EPHEMERIS_TYPE = 0
CLASSIFICATION_TYPE = U
NORAD_CAT_ID   = 68219
ELEMENT_SET_NO = 999
REV_AT_EPOCH   = 314
BSTAR          = -.71141E-3
MEAN_MOTION_DOT = -.134694E-2
MEAN_MOTION_DDOT = 0

CCSDS_OMM_VERS = 2.0
CREATION_DATE  = 
ORIGINATOR     = 

OBJECT_NAME    = STARLINK-37030
OBJECT_ID      = 2026-053P
CENTER_NAME    = EARTH
REF_FRAME      = TEME
TIME_SYSTEM    = UTC
MEAN_ELEMENT_THEORY = SGP/SGP4

EPOCH          = 2026-03-29T04:00:01.999584
MEAN_MOTION    = 15.80838454
ECCENTRICITY   = .0001492
INCLINATION    = 97.2844
RA_OF_ASC_NODE = 323.3934
ARG_OF_PERICENTER = 95.8613
MEAN_ANOMALY   = 322.1744

EPHEMERIS_TYPE = 0
CLASSIFICATION_TYPE = U
NORAD_CAT_ID   = 68220
ELEMENT_SET_NO = 999
REV_AT_EPOCH   = 314
BSTAR          = -.46817E-3
MEAN_MOTION_DOT = -.89005E-3
MEAN_MOTION_DDOT = 0

